INTELSAT 37E (IS-37E)   
1 42950U 17059A   23339.83282200 -.00000120  00000+0  00000+0 0  9999
2 42950   0.0177 328.3760 0002847 283.2256 104.5896  1.00270712 22798
AZERSPACE 2 (IS-38)     
1 43632U 18074A   23339.84563403  .00000156  00000+0  00000+0 0  9991
2 43632   0.0175 347.0966 0001413 270.8726 165.9642  1.00271090 19170
HORIZONS-3E             
1 43633U 18074B   23340.18938358 -.00000009  00000+0  00000+0 0  9994
2 43633   0.0146  98.1474 0001071 195.4809  18.2846  1.00270582 19059
AT&T T-16               
1 44333U 19034A   23339.81628767 -.00000095  00000+0  00000+0 0  9992
2 44333   0.0184 338.6273 0000536 120.9790 167.7627  1.00270238 16361
INTELSAT 39 (IS-39)     
1 44476U 19049B   23340.01299259  .00000054  00000+0  00000+0 0  9994
2 44476   0.0159 310.9648 0000810 188.7499   1.4675  1.00271001 15863
GALAXY 30 (G-30)        
1 46114U 20056C   23339.66732690  .00000056  00000+0  00000+0 0  9997
2 46114   0.0119 323.8512 0002180 285.5551 300.0556  1.00272727 12027
GALAXY 33 (G-33)        
1 54026U 22128A   23339.42549531  .00000098  00000+0  00000+0 0  9990
2 54026   0.0088 327.5193 0001886 281.2648 205.3768  1.00273560  4480
GALAXY 34 (G-34)        
1 54027U 22128B   23340.09225153  .00000080  00000+0  00000+0 0  9998
2 54027   0.0068   4.9373 0001351 240.2910  93.5980  1.00271065  4503
GALAXY 31 (G-31)        
1 54243U 22153A   23339.91293817  .00000034  00000+0  00000+0 0  9996
2 54243   0.0136 295.1001 0002741 335.7957  11.2242  1.00272333  3872
GALAXY 32 (G-32)        
1 54244U 22153B   23339.31692770 -.00000156  00000+0  00000+0 0  9998
2 54244   0.0132 323.4989 0002192 345.5990 147.8666  1.00271435  3873
GALAXY 35 (G-35)        
1 54741U 22170A   23339.81785410 -.00000142  00000+0  00000+0 0  9993
2 54741   0.0198 317.0780 0001640 307.8324  10.7720  1.00270388  3622
GALAXY 36 (G-36)        
1 54742U 22170B   23340.23174295 -.00000163  00000+0  00000+0 0  9998
2 54742   0.0192 321.9445 0000704 149.1098 318.1240  1.00268294  3652
GALAXY 37 (G-37)        
1 57493U 23112A   23339.66483598  .00000068  00000+0  00000+0 0  9998
2 57493   0.0153 333.0978 0002071 280.7966 292.6703  1.00272615  1273
